{"type": "FeatureCollection", "features": [{"type": "Feature", "geometry": {"type": "MultiPolygon", "coordinates": [[[[-118.17061899994665, 34.18479499987912], [-118.17061899994665, 34.18473200021395], [-118.17060999972583, 34.184681000309006], [-118.17060999972583, 34.18466999999032], [-118.1706070002511, 34.184643999906925], [-118.17060399987804, 34.18461799981557], [-118.17060100040331, 34.184591000226604], [-118.17059600038044, 34.18456500011892], [-118.17059200018247, 34.18453900000318], [-118.1705860003347, 34.1845129998794], [-118.1705799995886, 34.184486999747676], [-118.17057399974082, 34.18446100035102], [-118.17056700006812, 34.18443599969456], [-118.17056000039541, 34.18441000028217], [-118.17055199999952, 34.1843840001187], [-118.17054000030393, 34.18435099978528], [-118.17053100008309, 34.1843259998394], [-118.17048699970216, 34.184199999761454], [-118.1704459996943, 34.184083000157514], [-118.17037799992224, 34.183891999686885], [-118.1703329997164, 34.18376200022032], [-118.17035199998294, 34.183726999900976], [-118.17036100020378, 34.18364999974177], [-118.17035600018092, 34.183573000255464], [-118.17035299980786, 34.183554000062564], [-118.17019799999717, 34.1830789997945], [-118.17005499988203, 34.182689000007805], [-118.17006400010287, 34.18260000028588], [-118.16985499986549, 34.182441000265065], [-118.16970699972748, 34.182039000320096], [-118.16955799976458, 34.18163699994589], [-118.16950099986317, 34.18147800033958], [-118.1694880003427, 34.18143199981801], [-118.16918000037113, 34.181436999682084], [-118.16895900043818, 34.18143199981801], [-118.16847200036646, 34.18143199981801], [-118.16799799981523, 34.18143199981801], [-118.1674749997585, 34.18143000002097], [-118.16736699980346, 34.181433000088134], [-118.16727499974196, 34.18143199981801], [-118.16728399996278, 34.181459999944614], [-118.16731199955186, 34.18156699975885], [-118.16732599979557, 34.181621999645294], [-118.16736099995568, 34.181783999778055], [-118.16738900044307, 34.18201900026175], [-118.16740000031373, 34.18225400009083], [-118.1674129998342, 34.183072000269625], [-118.16640299970577, 34.183075999785906], [-118.16412899990397, 34.18308600006194], [-118.16412100040635, 34.182367999968214], [-118.1641170002084, 34.181604000024194], [-118.16411499966026, 34.18143600015516], [-118.16403199981958, 34.18144200028897], [-118.1636870000381, 34.18144400008576], [-118.16347699997581, 34.18144500035571], [-118.1633439999064, 34.18144599988248], [-118.16304299960754, 34.181447999679186], [-118.16299300027714, 34.18144899994908], [-118.15966900016393, 34.18144400008576], [-118.15966900016393, 34.1814670003464], [-118.15953299972148, 34.181464000280435], [-118.15906800028938, 34.18146600007672], [-118.15900700019002, 34.18146600007672], [-118.15883700031071, 34.1814670003464], [-118.15834299966797, 34.181469999669105], [-118.15817600016169, 34.18147099993873], [-118.1573519998061, 34.18147599980043], [-118.15715699981243, 34.18147700007], [-118.15698000026045, 34.18147800033958], [-118.15680600018314, 34.18147899986597], [-118.15663299993079, 34.1814800001355], [-118.1564560003788, 34.1814809996619], [-118.15627899992847, 34.1814819999314], [-118.15610499985117, 34.181483000200885], [-118.15592900012408, 34.181483999727256], [-118.15575300039698, 34.18148499999672], [-118.15529800011235, 34.181486999792455], [-118.15521899957129, 34.18148800006188], [-118.1551340000808, 34.181491000127], [-118.1537409996377, 34.18150200011706], [-118.15362600001, 34.18149799978305], [-118.15298999997536, 34.18150200011706], [-118.15226000022939, 34.181505000181666], [-118.15077600044802, 34.18151100031057], [-118.15064400020351, 34.18151199983655], [-118.15061099969324, 34.18151300010568], [-118.15019599959156, 34.18151600016991], [-118.15013100019254, 34.18151600016991], [-118.14999800012315, 34.18151799996496], [-118.14996499961288, 34.18151799996496], [-118.14979999975644, 34.181519000234026], [-118.14933699997418, 34.18152299982389], [-118.14920499972966, 34.18152299982389], [-118.14906900018558, 34.18152500036187], [-118.14844400002158, 34.18152799968252], [-118.1478540000177, 34.18153200001511], [-118.14775699993329, 34.18153200001511], [-118.14765499982606, 34.181533000284055], [-118.14699700005013, 34.181536000347506], [-118.14638699995476, 34.18153800014208], [-118.14633799955095, 34.18153899966776], [-118.14625100041063, 34.18153899966776], [-118.14617199986961, 34.181539999936625], [-118.14606100043983, 34.181539999936625], [-118.14570499988936, 34.181541000205414], [-118.14522299984051, 34.18154299999982], [-118.1451430003729, 34.181544000268644], [-118.14509099959605, 34.18154499979424], [-118.14463500038478, 34.181547000331705], [-118.14402600011431, 34.18154999965156], [-118.14391899998421, 34.18154999965156], [-118.14382799974759, 34.1815509999203], [-118.14333400000321, 34.18155299971447], [-118.1429189999015, 34.18155599977726], [-118.14268600027297, 34.18155700004587], [-118.142201999676, 34.18156499996497], [-118.14172100035039, 34.1813489996536], [-118.14026599998301, 34.18069499967373], [-118.13891000024815, 34.180084999791134], [-118.1381319999233, 34.17973500001143], [-118.13684300013561, 34.17915499987656], [-118.13452499995286, 34.17811299971806], [-118.13385700013117, 34.17781199967818], [-118.13210899986086, 34.17703599994625], [-118.13188899975283, 34.17693100023504], [-118.13190800001938, 34.176507000256116], [-118.12965500013401, 34.17651299999725], [-118.12862800028711, 34.17651699982442], [-118.12862900011203, 34.175878999724034], [-118.12863099976185, 34.17522900033871], [-118.12848400034707, 34.175237999714945], [-118.12838999973744, 34.17523900005846], [-118.12830900044489, 34.17523900005846], [-118.12824800034551, 34.1752399996588], [-118.12819100044413, 34.1752399996588], [-118.12811000025326, 34.17524100000229], [-118.12799999975009, 34.17524200034577], [-118.12794399967359, 34.17524200034577], [-118.12788900032032, 34.175242999946015], [-118.12772399956557, 34.175244000289524], [-118.12729099992052, 34.17525000012041], [-118.12625200037807, 34.17525599995091], [-118.12625099965483, 34.1750829998362], [-118.126064999882, 34.1750840001816], [-118.12587999993407, 34.17508600012904], [-118.12569499998617, 34.17508699973121], [-118.12551000003823, 34.1750880000765], [-118.1253190002425, 34.17509000002385], [-118.12521799996019, 34.17509000002385], [-118.1251209998758, 34.17508200023405], [-118.12492599988214, 34.17509300031646], [-118.12476100002567, 34.17509500026375], [-118.12459600016923, 34.17509599986574], [-118.12443100031281, 34.17509700021093], [-118.12426499973314, 34.17509799981296], [-118.12409999987668, 34.17509999976008], [-118.12393400019535, 34.17510100010528], [-118.1237690003389, 34.1751019997072], [-118.12360399958415, 34.175103999654276], [-118.12342899968198, 34.17510499999937], [-118.12324200008419, 34.175106000344456], [-118.12316199971826, 34.175108000291445], [-118.12316300044151, 34.17520700020791], [-118.12316300044151, 34.175259999837664], [-118.12241600007879, 34.17526700001065], [-118.12241500025387, 34.175406000033945], [-118.12241699990369, 34.175509999816114], [-118.12158699970028, 34.17551300009378], [-118.12158400022557, 34.17527499978297], [-118.12146600022477, 34.175274000183045], [-118.12145000033125, 34.175274000183045], [-118.12098199962779, 34.17527800006899], [-118.12095400003871, 34.17527800006899], [-118.12081699977136, 34.175280000011846], [-118.12075999986996, 34.175280000011846], [-118.12065100009, 34.17528100035485], [-118.1205819995947, 34.17528100035485], [-118.12056900007424, 34.17528100035485], [-118.12048600023354, 34.175281999954706], [-118.1203830003014, 34.17528300029769], [-118.12032100037712, 34.17528300029769], [-118.12021800044495, 34.17528399989745], [-118.12015499979745, 34.17528500024048], [-118.1200529996902, 34.17528500024048], [-118.11998999994101, 34.17528599984023], [-118.11988700000884, 34.17528700018316], [-118.11982500008457, 34.17528700018316], [-118.11972200015241, 34.17528799978293], [-118.11965900040322, 34.17528900012586], [-118.11955700029598, 34.17528999972556], [-118.11949399964847, 34.17528999972556], [-118.11939200043952, 34.175291000068434], [-118.11932899979202, 34.175291000068434], [-118.11922599985985, 34.17529199966817], [-118.11916300011066, 34.175293000011045], [-118.11906100000341, 34.1752940003539], [-118.11899800025422, 34.1752940003539], [-118.11889600014699, 34.17529499995359], [-118.1188330003978, 34.17529600029643], [-118.11872999956731, 34.17529600029643], [-118.11866699981812, 34.17529699989604], [-118.1185019999617, 34.175298000238854], [-118.11850299978659, 34.175463000159105], [-118.11833799993015, 34.17546399975674], [-118.1183420001281, 34.175854000240406], [-118.11834499960284, 34.17593899979217], [-118.11809899955556, 34.17590900013501], [-118.11778800010921, 34.17590799979944], [-118.11735799993895, 34.17591100006295], [-118.11735499956588, 34.17530700035094], [-118.11680499974496, 34.17530900029315], [-118.11661899997213, 34.17530999989262], [-118.11661800014721, 34.175103000052324], [-118.11661700032232, 34.17499400026625], [-118.11660999975129, 34.17425499966036], [-118.11660499972842, 34.17375800004236], [-118.11684800030099, 34.173756000063385], [-118.11700200028676, 34.17375499970229], [-118.11698100037037, 34.17139300036665], [-118.11697100032463, 34.17133100000283], [-118.11697200014956, 34.17131800013655], [-118.11697600034752, 34.171208999921184], [-118.11697499962429, 34.171086000013645], [-118.11697499962429, 34.17107199971674], [-118.11697499962429, 34.17105699976762], [-118.11697399979937, 34.17096200027586], [-118.11697299997448, 34.17092000005964], [-118.11697299997448, 34.17083800035595], [-118.11697200014956, 34.17078300012933], [-118.11697100032463, 34.17070100029247], [-118.11697100032463, 34.17064500032188], [-118.1169699996014, 34.170564000006685], [-118.1169699996014, 34.170507999945194], [-118.1169689997765, 34.17042599984116], [-118.1169689997765, 34.170371000089325], [-118.1169679999516, 34.17028899985219], [-118.11696700012668, 34.1702330003515], [-118.11696600030176, 34.17015099998029], [-118.11696600030176, 34.17009600004925], [-118.11696499957856, 34.17001400028819], [-118.11696499957856, 34.169957999861786], [-118.11696399975364, 34.169876999630524], [-118.11696399975364, 34.16982099985643], [-118.11696299992872, 34.16973899982821], [-118.11696200010381, 34.1696829999626], [-118.11695999955566, 34.16960799969942], [-118.11642499980339, 34.169616000008176], [-118.11542600044389, 34.16961199985392], [-118.11425999978151, 34.169618999752124], [-118.11426399997949, 34.16956200013933], [-118.11424800008596, 34.16956099972852], [-118.11302399969726, 34.16958000009941], [-118.11302299987237, 34.16963600003341], [-118.11301399965153, 34.17033899987937], [-118.11301299982661, 34.17039299999437], [-118.11142399956493, 34.17039500005299], [-118.11141199986936, 34.17038699981813], [-118.11120900037811, 34.170245999641644], [-118.11121199985284, 34.170117000365025], [-118.11122799974635, 34.16914399982055], [-118.11153900009097, 34.169143000148054], [-118.11154199956572, 34.16870199996649], [-118.11154400011387, 34.16859700029155], [-118.11137900025743, 34.16859700029155], [-118.11121400040098, 34.168595999869304], [-118.11104699999639, 34.168595999869304], [-118.11088299996484, 34.16859500019027], [-118.1107180001084, 34.16859500019027], [-118.11055300025198, 34.168593999768], [-118.10960900024578, 34.16859099998763], [-118.10952800005494, 34.16859199966665], [-118.10936200037355, 34.16859099998763], [-118.10936900004626, 34.16808699969377], [-118.10936900004626, 34.1680000002941], [-118.1093730002442, 34.167588000048276], [-118.10927600015984, 34.167588000048276], [-118.10920800038778, 34.16758700035735], [-118.10911700015116, 34.16758700035735], [-118.10902599991458, 34.16758700035735], [-118.10890600026399, 34.16758700035735], [-118.1088440003397, 34.16758599992315], [-118.10870100022458, 34.16758599992315], [-118.10866299969142, 34.16758599992315], [-118.10848100011654, 34.16758500023214], [-118.10831500043518, 34.16758500023214], [-118.10814999968044, 34.167583999797905], [-118.10809100012922, 34.167583999797905], [-118.107984999824, 34.167583999797905], [-118.10781999996755, 34.16758300010694], [-118.10775999969309, 34.16758300010694], [-118.10765400028622, 34.16758300010694], [-118.10754499960792, 34.16758199967263], [-118.10748900042975, 34.16758199967263], [-118.10738999979725, 34.16758199967263], [-118.107323999675, 34.16758199967263], [-118.10715799999365, 34.16758099998164], [-118.10708199982567, 34.16758099998164], [-118.1069930001372, 34.16758099998164], [-118.10685099984697, 34.16758000029062], [-118.10682800028076, 34.16758000029062], [-118.10672899964825, 34.16758000029062], [-118.10665300037859, 34.16758000029062], [-118.10658700025635, 34.16757899985628], [-118.1064709999054, 34.16757899985628], [-118.10635499955444, 34.16757899985628], [-118.1062890003305, 34.16757899985628], [-118.10610699985732, 34.16757800016526], [-118.10592500028243, 34.16757699973093], [-118.10563900005218, 34.16757600003984], [-118.10554500034085, 34.16757600003984], [-118.10533000025568, 34.16757500034877], [-118.1051190003685, 34.16757500034877], [-118.10491400032909, 34.16757399991442], [-118.10470900028966, 34.16757300022328], [-118.10450400025024, 34.16757300022328], [-118.10429900021084, 34.1675719997889], [-118.10409400017143, 34.1675719997889], [-118.10388900013201, 34.16757100009779], [-118.10368400009261, 34.16756999966339], [-118.10347900005317, 34.16756999966339], [-118.10327400001378, 34.1675689999722], [-118.10306899997438, 34.1675689999722], [-118.10282100027726, 34.16756800028105], [-118.10271999999493, 34.16756999966339], [-118.10242399971888, 34.167566999846564], [-118.10222600025051, 34.167566999846564], [-118.10202899970868, 34.1675660001554], [-118.10186100037753, 34.1675660001554], [-118.10181500034676, 34.16756499972092], [-118.10169200032313, 34.16756499972092], [-118.10161600015512, 34.16756499972092], [-118.1015240000936, 34.16756499972092], [-118.10141799978842, 34.16756400002969], [-118.10135500003923, 34.16756400002969], [-118.10122000032001, 34.16756400002969], [-118.10118599998482, 34.16756400002969], [-118.10102100012838, 34.167563000338475], [-118.10082299976166, 34.167563000338475], [-118.10068100036976, 34.167563000338475], [-118.10062399957005, 34.16756199990398], [-118.10051200031535, 34.16756199990398], [-118.10042600010163, 34.16756199990398], [-118.10034300026095, 34.1675610002127], [-118.10022799973491, 34.1675610002127], [-118.10017500003148, 34.1675610002127], [-118.10002900044161, 34.1675610002127], [-118.09999599993131, 34.167559999778184], [-118.09983100007489, 34.167559999778184], [-118.09963299970816, 34.167559000086925], [-118.09949999963878, 34.167559000086925], [-118.09943400041485, 34.167559000086925], [-118.09933200030758, 34.167559000086925], [-118.09923600004812, 34.16755799965238], [-118.09916300025317, 34.16755799965238], [-118.0990379996814, 34.16755799965238], [-118.09899500002372, 34.16755799965238], [-118.09887200000007, 34.16755699996106], [-118.0988259999693, 34.16755799965238], [-118.09867399963332, 34.16755699996106], [-118.09834200027065, 34.167566999846564], [-118.09833999972248, 34.167708999728305], [-118.09833399987473, 34.1680520003049], [-118.098327000202, 34.16841299969666], [-118.09832300000406, 34.168616000136225], [-118.09780199959715, 34.168611999934576], [-118.09780199959715, 34.16883900030166], [-118.09780300032037, 34.169138000298766], [-118.09713899979832, 34.16914599990882], [-118.09590100006426, 34.16916800013316], [-118.09581800022359, 34.16916899980535], [-118.09576100032217, 34.16916399995762], [-118.09505800034037, 34.1691759997403], [-118.0951150002418, 34.16928500035151], [-118.09522300019681, 34.16968999985492], [-118.09501200030964, 34.169767999783886], [-118.09511000021894, 34.16995300006079], [-118.09520499975515, 34.169919000365766], [-118.09524099974018, 34.169970000274844], [-118.0953889998782, 34.17017200028237], [-118.09558700024489, 34.17044099990241], [-118.09601999988992, 34.17043299967185], [-118.09612299982209, 34.17068000012206], [-118.09612700002006, 34.17071499990773], [-118.09622699957917, 34.170928999895395], [-118.09630799977005, 34.1711240000646], [-118.09637499971718, 34.17131800013655], [-118.09646900032682, 34.17159099988091], [-118.09656300003817, 34.171866999892764], [-118.09660900006891, 34.17199899987017], [-118.09648699987017, 34.17217200036131], [-118.09564699962102, 34.17335800033547], [-118.09561099963602, 34.17368999998814], [-118.09560499978824, 34.17375099974421], [-118.09559100044287, 34.17387200025081], [-118.09556899980323, 34.17407300022367], [-118.09555299990973, 34.17422500014775], [-118.09553399964315, 34.17441000031674], [-118.09552199994756, 34.17451300023106], [-118.09543400008404, 34.174551000225414], [-118.09534899969522, 34.17458799985144], [-118.09528799959584, 34.174616000019626], [-118.09521599962581, 34.17506500030654], [-118.09520300010533, 34.17514400007178], [-118.09499800006593, 34.175099000158134], [-118.09500800011166, 34.17514200012572], [-118.09499700024101, 34.17524200034577], [-118.09499800006593, 34.17542899971097], [-118.09499800006593, 34.17563499989914], [-118.09529900036482, 34.17563499989914], [-118.09542800023624, 34.17563499989914], [-118.09824199981318, 34.175631000030165], [-118.09824900038421, 34.175664000058454], [-118.09825600005689, 34.17568499973189], [-118.09828700001903, 34.175779000258785], [-118.09855700035578, 34.17639200030466], [-118.09925199994166, 34.177945000329416], [-118.09938500001104, 34.178244000022254], [-118.099389000209, 34.17837800029886], [-118.10028800000936, 34.1803710001171], [-118.10031099957557, 34.18267299963884], [-118.10031499977354, 34.18302700012533], [-118.10032900001725, 34.18312899967492], [-118.10034900010874, 34.18320399981149], [-118.10036500000226, 34.18323000033865], [-118.1003950001395, 34.1833280001387], [-118.10044600019312, 34.1834229998286], [-118.1005089999423, 34.18351200016856], [-118.10058199973726, 34.18359499969123], [-118.10066600030113, 34.18367099965706], [-118.10075900018755, 34.18374000008496], [-118.10085999957158, 34.18379999976499], [-118.10114300032711, 34.18392599969725], [-118.10129700031291, 34.184002000108016], [-118.10148200026082, 34.18410599969866], [-118.1015709999493, 34.18416100015917], [-118.10215400028048, 34.18469199988313], [-118.10224299996892, 34.184768999834304], [-118.10243899978752, 34.184923000268924], [-118.10236699981752, 34.18498500030662], [-118.10233199965738, 34.18501599993681], [-118.10213800038694, 34.18518700004139], [-118.1023040000683, 34.18553099965363], [-118.10241500039639, 34.18575000031771], [-118.10251699960531, 34.18567299977582], [-118.10280600020864, 34.18590900004662], [-118.10303700018733, 34.18623599978084], [-118.10320399969358, 34.18647799973834], [-118.10304800005795, 34.186581999991915], [-118.1029280004074, 34.18666100012028], [-118.10304899988287, 34.18665299994133], [-118.10314099994439, 34.18664700017815], [-118.10325999977007, 34.18663200002528], [-118.10358600018331, 34.186583999666816], [-118.10361399977239, 34.18665599982276], [-118.10368200044279, 34.18676399994136], [-118.10380799994117, 34.186976999893815], [-118.10378000035206, 34.18718000026199], [-118.10375600006265, 34.187380999742544], [-118.10372199972743, 34.18767899998004], [-118.10384300010125, 34.187929000314725], [-118.10397199997269, 34.18819499997608], [-118.10412400030867, 34.188221999897586], [-118.10440399979282, 34.18851899995011], [-118.1044439999758, 34.188580000131616], [-118.10483499978804, 34.18917300020662], [-118.10485900007748, 34.189208999930344], [-118.10487599979594, 34.18932899964145], [-118.1048809998188, 34.1893629996896], [-118.1049369998953, 34.18973999982898], [-118.10492600002465, 34.19016199984672], [-118.10492400037484, 34.19023200033223], [-118.1049219998267, 34.19032299976192], [-118.10481800006961, 34.19037199964281], [-118.10477600023682, 34.1904329999703], [-118.10458799991584, 34.1907079998636], [-118.10473500022896, 34.1908699996377], [-118.10478499955933, 34.19087099979586], [-118.1048160004198, 34.19087099979586], [-118.1049169998038, 34.19087199995407], [-118.10491099995605, 34.19109399984938], [-118.10516399967601, 34.19140299978528], [-118.10527199963107, 34.19153800011613], [-118.10534000030144, 34.191619000359516], [-118.10541300009636, 34.19170899963049], [-118.10557700012791, 34.19191199975536], [-118.1058809999015, 34.192263999823915], [-118.10597799998591, 34.192376000010476], [-118.10627799956154, 34.19270400007266], [-118.10640800015618, 34.19284700014219], [-118.10680300016642, 34.1932180002727], [-118.10691899961905, 34.19329600000038], [-118.10611199988021, 34.19330499967852], [-118.10530699979118, 34.193297000129775], [-118.10507400016263, 34.19329600000038], [-118.10496000035984, 34.19329399974149], [-118.10488599984167, 34.1933529999272], [-118.1048089998488, 34.19338300006876], [-118.10480800002388, 34.193863000139075], [-118.10480800002388, 34.194856000207764], [-118.10682300025789, 34.19582899997234], [-118.11026299982375, 34.198291999960105], [-118.11437500030758, 34.20145999997988], [-118.1149629997633, 34.201903999902065], [-118.11580999968515, 34.20254200005331], [-118.11665599978205, 34.20318099984597], [-118.11789500023936, 34.20411600008927], [-118.11926100001996, 34.20493199998547], [-118.12350499984993, 34.20746800017974], [-118.12490300031592, 34.208304000086756], [-118.12513500011949, 34.20843199971016], [-118.12559399970381, 34.20868500001912], [-118.12893899973342, 34.210529999912126], [-118.13195999989793, 34.21219600034389], [-118.13286899974403, 34.21273600016956], [-118.13502799991814, 34.21388899965648], [-118.13622700019246, 34.21453000009358], [-118.13823499985547, 34.21459100002831], [-118.14351499975317, 34.214913999725795], [-118.14441799975148, 34.21493699977206], [-118.14524700012996, 34.214976999869805], [-118.14885900012327, 34.21514800012925], [-118.1537120002237, 34.215393999776545], [-118.15625499963902, 34.21602900000636], [-118.15851400027053, 34.216486000030784], [-118.15898799992345, 34.21659799998048], [-118.16047500007785, 34.21692200000463], [-118.16223599986867, 34.217334999822555], [-118.16223000002088, 34.217015999883905], [-118.16228899957213, 34.216856000279556], [-118.1624280003876, 34.21672999978306], [-118.16316900000423, 34.21650500023171], [-118.16335499977707, 34.21643300030784], [-118.16350000044034, 34.216306999921564], [-118.16369899973364, 34.216279000222784], [-118.1638910002526, 34.21621899988196], [-118.16384400039692, 34.21606000010917], [-118.16373200024394, 34.215922000091126], [-118.16368600021318, 34.21575699983753], [-118.16378499994738, 34.21560899993399], [-118.16394999980382, 34.21550999989853], [-118.1643210004229, 34.21536699964198], [-118.1644119997612, 34.21525700002231], [-118.16341500005154, 34.215233000194296], [-118.16342500009728, 34.21521899979621], [-118.1635260003796, 34.215137000070904], [-118.16366399957356, 34.21501699994857], [-118.16380199966581, 34.21489800027132], [-118.16393999975809, 34.2147779998086], [-118.16407899967525, 34.214657999917854], [-118.1642159999426, 34.21453899973359], [-118.16458300036373, 34.21400899989951], [-118.16473200032664, 34.213794000116664], [-118.16488700013734, 34.2133940000975], [-118.16490200020594, 34.213353999991156], [-118.16493499981792, 34.21327100004421], [-118.16484899960417, 34.21315000034202], [-118.16481900036526, 34.21310800033107], [-118.16476599976352, 34.21303399994256], [-118.16485399962704, 34.212940999974435], [-118.16496499995513, 34.212820999696184], [-118.16507700010814, 34.21270099998993], [-118.16518800043623, 34.21258200001348], [-118.16525899968302, 34.212506000102856], [-118.16524699998747, 34.212429000221206], [-118.16508999962862, 34.212329000260304], [-118.164933999993, 34.21222800027592], [-118.16498400022171, 34.212171999643985], [-118.16513300018464, 34.21226999998259], [-118.16534999991961, 34.21240800003871], [-118.16546100024769, 34.21228799974433], [-118.16557199967744, 34.21216899992748], [-118.16568300000553, 34.212049000035655], [-118.16579400033363, 34.2119299998813], [-118.16595099979415, 34.21176100034089], [-118.16662100016396, 34.21177399991754], [-118.16662100016396, 34.21180999964909], [-118.16699299970965, 34.211811000301736], [-118.16724499960472, 34.211755000135575], [-118.16715199971831, 34.21118400031013], [-118.16694599985398, 34.21103799964127], [-118.16690400002119, 34.211007999838856], [-118.16667499969233, 34.210743999928525], [-118.16665399977593, 34.21072000030088], [-118.16648700026967, 34.21052800006217], [-118.16645999960716, 34.210496000227444], [-118.166404000429, 34.210431999778756], [-118.16619500019162, 34.21019100014853], [-118.1660460002287, 34.21001900029932], [-118.16604399968058, 34.20990699977683], [-118.16604500040378, 34.20985199976427], [-118.16604299985566, 34.2096900000589], [-118.16604200003074, 34.20952500023153], [-118.16604200003074, 34.209365999714095], [-118.16604100020581, 34.20913099965675], [-118.16604000038092, 34.20887500010997], [-118.16603799983278, 34.208752000146944], [-118.16603899965769, 34.20869999996363], [-118.16603899965769, 34.20860099998312], [-118.16603600018294, 34.20827000024697], [-118.16603500035805, 34.208078000369866], [-118.16571300014276, 34.2080709999482], [-118.1655530003092, 34.20806800008572], [-118.1655540001341, 34.20805499993736], [-118.16555900015699, 34.20801500026845], [-118.16559400031707, 34.20774800002351], [-118.16561699988331, 34.20755699966048], [-118.16564100017273, 34.20737300008771], [-118.16565799989118, 34.20724099974303], [-118.16562799975397, 34.207210000110464], [-118.16548800001185, 34.2070630000202], [-118.16533599967589, 34.20690400005847], [-118.16521199982733, 34.2067729996917], [-118.16462799967124, 34.20615899980755], [-118.1645180000664, 34.20585199967407], [-118.1643289999205, 34.205322000183216], [-118.1641799999576, 34.205403999800886], [-118.16410999963739, 34.205312000314976], [-118.16402799962164, 34.205088999973455], [-118.16395800019974, 34.204894000304016], [-118.1637570003583, 34.204843999954186], [-118.16356099964139, 34.20479500031066], [-118.16344299964062, 34.204765999765286], [-118.16335300012724, 34.20479600030366], [-118.16332499963983, 34.204737999946516], [-118.16291200008627, 34.204634999790365], [-118.16281900019987, 34.20461199990423], [-118.16273299998615, 34.20458400003436], [-118.16272799996325, 34.20455100017573], [-118.16272600031344, 34.2044489997882], [-118.16271600026771, 34.204202000137556], [-118.16271299989465, 34.20403399996159], [-118.16270600022195, 34.20389100029099], [-118.16270299984892, 34.20379899989664], [-118.16269799982605, 34.203666999898466], [-118.16269700000112, 34.20361800031372], [-118.16269000032844, 34.203471999911315], [-118.16219900005875, 34.20281099973438], [-118.16209000027881, 34.202679999693096], [-118.16203599985212, 34.202612999939284], [-118.16194999963841, 34.20250900013831], [-118.16184800042946, 34.20238399975769], [-118.16179800020075, 34.202324999947514], [-118.16166099993342, 34.20215899979421], [-118.16164800041294, 34.202143000147025], [-118.16162699959823, 34.20211600022482], [-118.16151399962033, 34.20197699963535], [-118.1615129997954, 34.20190299987476], [-118.16151199997049, 34.201845999784], [-118.1615110001456, 34.20176200036203], [-118.16151000032067, 34.20166799981292], [-118.16132500037276, 34.20168300026325], [-118.16107299957935, 34.20170300011659], [-118.16086000004233, 34.20171999987671], [-118.16084699962354, 34.20171999987671], [-118.16065800037597, 34.2017360003471], [-118.16085099982152, 34.20131500033208], [-118.16080599961568, 34.201271000297446], [-118.16072799979787, 34.20119299977425], [-118.16060899997215, 34.20107399989435], [-118.16034799985624, 34.20081300019391], [-118.15983900004323, 34.20030200036506], [-118.15970199977588, 34.20016499985243], [-118.15954699996519, 34.20000999970903], [-118.15961999976014, 34.199851999868805], [-118.15986300033265, 34.19932099974538], [-118.16012400044859, 34.19875099970679], [-118.16013500031926, 34.19872600031422], [-118.16063599973634, 34.198888000288136], [-118.16183199963764, 34.19926999974637], [-118.16303699975975, 34.19965599991882], [-118.16344799966349, 34.19978800025366], [-118.16341900024949, 34.19985099981716], [-118.16259300024406, 34.201641999768995], [-118.1632240002558, 34.201589999657045], [-118.16396800024548, 34.20149200027339], [-118.16397599974309, 34.20148099991849], [-118.16401699975098, 34.201421000186286], [-118.16405899958377, 34.20136199970214], [-118.16408899972102, 34.201320999794724], [-118.16414700034562, 34.20123799988487], [-118.16420500007195, 34.201154999893326], [-118.16423199983613, 34.201118000031855], [-118.16431100037717, 34.20100500027419], [-118.16432300007271, 34.20098999970322], [-118.16439099984477, 34.200892999661335], [-118.16443900042367, 34.20082399989299], [-118.16447200003564, 34.20077700022307], [-118.16455599970124, 34.20065799975597], [-118.16485199997723, 34.20023700030147], [-118.16489600035818, 34.20016900004411], [-118.16579900035649, 34.19804199988217], [-118.16658600000387, 34.19659900015591], [-118.1665940003998, 34.19657999992528], [-118.16665299995101, 34.19646700002944], [-118.16679799971598, 34.19622000002565], [-118.16686100036348, 34.196127000080395], [-118.16693900018127, 34.19604200006466], [-118.16707899992339, 34.195878999724904], [-118.1671509998934, 34.19578299984687], [-118.16705600035715, 34.1957369996963], [-118.16793400024112, 34.19415999964555], [-118.16801399970872, 34.19401199971203], [-118.16810800031838, 34.19404200036214], [-118.16821799992326, 34.19383099992219], [-118.16831599983253, 34.19362900008388], [-118.1684050004193, 34.19342500024897], [-118.16841999958962, 34.19338199994033], [-118.16845499974973, 34.19324999997915], [-118.16847400001629, 34.19311699967985], [-118.16848599971186, 34.19286699986241], [-118.16848300023713, 34.19270799987525], [-118.1684759996661, 34.192601000074994], [-118.16849099973473, 34.192445000004916], [-118.16852300042008, 34.19211000016047], [-118.16852800044295, 34.192094000092496], [-118.1684330000084, 34.19206199994734], [-118.16774300044541, 34.19183300008698], [-118.1674389997735, 34.19173300021244], [-118.16728599961262, 34.19168200008216], [-118.16735000008502, 34.191491999879055], [-118.16710499986263, 34.19140500008896], [-118.16650300016319, 34.19123299980434], [-118.16651999988164, 34.191180999960295], [-118.16661100011822, 34.190874000270355], [-118.16666700019474, 34.190691000112366], [-118.16672699957087, 34.190476999716275], [-118.16680799976172, 34.190317999681504], [-118.16729800020649, 34.19046700031641], [-118.16740699998644, 34.19050300023087], [-118.16750599972063, 34.19053500022445], [-118.16750599972063, 34.190505999975386], [-118.16750499989571, 34.19043699988059], [-118.16750400007079, 34.19018899988167], [-118.167502000421, 34.190023999780955], [-118.16750099969776, 34.18985900010055], [-118.16749999987285, 34.189695000269495], [-118.16749800022302, 34.18952999994543], [-118.1674970003981, 34.18936500004166], [-118.16749599967487, 34.189199999815095], [-118.16749300020015, 34.189008000347535], [-118.16749099965203, 34.188808999907934], [-118.16763999961493, 34.18880799972526], [-118.16769099966854, 34.18880700028572], [-118.16779000030107, 34.18880700028572], [-118.16792699967012, 34.188806000103085], [-118.16804800004394, 34.188806000103085], [-118.16816900041776, 34.18880499992043], [-118.16824700023555, 34.18880499992043], [-118.1682909997182, 34.18880499992043], [-118.16858199997132, 34.18880399973771], [-118.16858199997132, 34.188778000185515], [-118.16858100014639, 34.18850100031443], [-118.16858799981911, 34.1883070003647], [-118.16863800004782, 34.18818800013262], [-118.1686370002229, 34.187941999851134], [-118.16863499967474, 34.18745500035859], [-118.16862499962903, 34.18737900008647], [-118.16861999960616, 34.18709200027952], [-118.16861200010852, 34.186256999795475], [-118.16860700008569, 34.1855130001235], [-118.16862299997919, 34.185446000104584], [-118.16873400030727, 34.185444999882094], [-118.16891400023233, 34.18544399965958], [-118.16953400037343, 34.185450000251386], [-118.16962600043497, 34.185459000023705], [-118.1697140002985, 34.18548000023174], [-118.16979799996409, 34.185514000345194], [-118.16988699965255, 34.18556899988769], [-118.16998799993489, 34.185675999692045], [-118.17013199987493, 34.18581100027252], [-118.17027900018802, 34.18592499980176], [-118.17037899974716, 34.18564100016683], [-118.17055000034966, 34.18516100011736], [-118.17057600028896, 34.185073999741704], [-118.17059700020533, 34.18498200036576], [-118.1706070002511, 34.18492000032586], [-118.17061399992377, 34.18485800024041], [-118.17061899994665, 34.18479499987912]]], [[[-118.17164499996862, 34.18938899980454], [-118.17172000031171, 34.18928699965052], [-118.17118300001127, 34.18925799971535], [-118.17107400023131, 34.18925200013753], [-118.17098399981963, 34.18924699999355], [-118.17087699968951, 34.18924199984934], [-118.17068800044194, 34.18923200030311], [-118.17069299956647, 34.18917499982016], [-118.17051500018958, 34.18917800035499], [-118.1704320003489, 34.18917800035499], [-118.17035100015805, 34.18917800035499], [-118.17018399975349, 34.18917899979013], [-118.17001899989702, 34.189181000146554], [-118.1699539995997, 34.189181000146554], [-118.16985300021567, 34.18918200032481], [-118.1697710001999, 34.18918200032481], [-118.16971299957527, 34.1891829997599], [-118.16968800035924, 34.1891829997599], [-118.16952799962736, 34.18918399993808], [-118.1694759997488, 34.18918500011624], [-118.16935600009822, 34.18918600029444], [-118.16923999974726, 34.18918600029444], [-118.16919700008954, 34.18918699972949], [-118.16903300005804, 34.18918799990762], [-118.16899899972285, 34.18918799990762], [-118.16886599965345, 34.189189000085726], [-118.16874900037591, 34.189190000263835], [-118.1687219997134, 34.189190000263835], [-118.16857799977336, 34.18919300005503], [-118.16857799977336, 34.189239000059885], [-118.16857699994844, 34.18968399986161], [-118.16859200001706, 34.19067400035766], [-118.16876199989638, 34.1911089999518], [-118.16898200000439, 34.19164399962999], [-118.16921899983086, 34.19221300001476], [-118.16930300039479, 34.192415999669564], [-118.16938700006035, 34.19232799994874], [-118.1695519999168, 34.19215399977459], [-118.16981100038288, 34.191880999687385], [-118.16994899957682, 34.191735999913185], [-118.17002899994276, 34.19165200007854], [-118.17010699976059, 34.19156900031019], [-118.17052000021243, 34.19113400011653], [-118.17052199986227, 34.19111900001855], [-118.17055299982441, 34.19075799968031], [-118.17055000034966, 34.190735999883465], [-118.17055899967217, 34.19067499977513], [-118.17056899971793, 34.19057700033697], [-118.17060499970296, 34.1901640001799], [-118.1706089999009, 34.1901219998617], [-118.17069299956647, 34.19007100024333], [-118.17102499982752, 34.189869000315575], [-118.17119899990477, 34.18976400022825], [-118.17128299957035, 34.18971200022148], [-118.17137100033223, 34.189659000010145], [-118.17150199985348, 34.18957999971744], [-118.17151299972413, 34.189572999988904], [-118.17156399977777, 34.18950100009381], [-118.17164499996862, 34.18938899980454]]]]}, "properties": {"NAME": "Altadena CDP", "GEOID": "0601290", "POP100": 42846, "AREALAND": 21925889}}]}
